STARLINK-30524          
1 57965U 23151B   26068.16426896  .00007138  00000+0  27520-3 0  9995
2 57965  43.0000 339.1883 0001045 274.6135  85.4596 15.26777620135687
OTTER                   
1 62623U 25009Q   26068.72300813  .00012198  00000+0  45151-3 0  9990
2 62623  97.4065 151.3812 0003573 310.7710  49.3219 15.27809545 63722
